{
  "type": "FeatureCollection",
  "features": [
    {
      "type": "Feature",
      "properties": {
        "norad_id": 66793,
        "name": "STARLINK-36051",
        "group": "last-30-days",
        "lat": -42.524177481952606,
        "lon": 78.62128575033994,
        "alt_km": 417.38770544410727,
        "timestamp": "2025-12-24T22:42:20.745903+00:00",
        "meta_object_name": "STARLINK-36051",
        "meta_object_id": "2025-278C",
        "meta_epoch": "2025-12-24T08:00:03.000384",
        "meta_mean_motion": 15.50587556,
        "meta_eccentricity": 0.00018064,
        "meta_inclination": 43.0002,
        "meta_ra_of_asc_node": 182.4126,
        "meta_arg_of_pericenter": 262.4963,
        "meta_mean_anomaly": 175.7968,
        "meta_ephemeris_type": 0,
        "meta_classification_type": "U",
        "meta_norad_cat_id": 66793,
        "meta_element_set_no": 999,
        "meta_rev_at_epoch": 472,
        "meta_bstar": -0.0012478304,
        "meta_mean_motion_dot": -0.00072893,
        "meta_mean_motion_ddot": 0,
        "tle_line1": "1 66793U 25278C   25358.33336806 -.00072893  00000+0 -12478-2 0  9994",
        "tle_line2": "2 66793  43.0002 182.4126 0001806 262.4963 175.7968 15.50587556  4726"
      },
      "geometry": {
        "type": "Point",
        "coordinates": [
          78.62128575033994,
          -42.524177481952606
        ]
      }
    },
    {
      "type": "Feature",
      "properties": {
        "norad_id": 66794,
        "name": "STARLINK-36062",
        "group": "last-30-days",
        "lat": -42.26480242763002,
        "lon": 76.06382000205598,
        "alt_km": 416.98019787820704,
        "timestamp": "2025-12-24T22:42:20.745913+00:00",
        "meta_object_name": "STARLINK-36062",
        "meta_object_id": "2025-278D",
        "meta_epoch": "2025-12-24T08:00:03.000384",
        "meta_mean_motion": 15.50577489,
        "meta_eccentricity": 0.00022845,
        "meta_inclination": 43.0001,
        "meta_ra_of_asc_node": 182.4169,
        "meta_arg_of_pericenter": 259.5107,
        "meta_mean_anomaly": 176.8525,
        "meta_ephemeris_type": 0,
        "meta_classification_type": "U",
        "meta_norad_cat_id": 66794,
        "meta_element_set_no": 999,
        "meta_rev_at_epoch": 482,
        "meta_bstar": -0.00074961015,
        "meta_mean_motion_dot": -0.00044072,
        "meta_mean_motion_ddot": 0,
        "tle_line1": "1 66794U 25278D   25358.33336806 -.00044072  00000+0 -74961-3 0  9999",
        "tle_line2": "2 66794  43.0001 182.4169 0002284 259.5107 176.8525 15.50577489  4827"
      },
      "geometry": {
        "type": "Point",
        "coordinates": [
          76.06382000205598,
          -42.26480242763002
        ]
      }
    },
    {
      "type": "Feature",
      "properties": {
        "norad_id": 66795,
        "name": "STARLINK-36047",
        "group": "last-30-days",
        "lat": -42.72822239231914,
        "lon": 81.2328244484919,
        "alt_km": 417.3465823119295,
        "timestamp": "2025-12-24T22:42:20.745924+00:00",
        "meta_object_name": "STARLINK-36047",
        "meta_object_id": "2025-278E",
        "meta_epoch": "2025-12-24T08:00:03.000384",
        "meta_mean_motion": 15.505767,
        "meta_eccentricity": 0.00017633,
        "meta_inclination": 43.0001,
        "meta_ra_of_asc_node": 182.408,
        "meta_arg_of_pericenter": 261.9913,
        "meta_mean_anomaly": 178.2214,
        "meta_ephemeris_type": 0,
        "meta_classification_type": "U",
        "meta_norad_cat_id": 66795,
        "meta_element_set_no": 999,
        "meta_rev_at_epoch": 472,
        "meta_bstar": -0.00071497571,
        "meta_mean_motion_dot": -0.00042059,
        "meta_mean_motion_ddot": 0,
        "tle_line1": "1 66795U 25278E   25358.33336806 -.00042059  00000+0 -71498-3 0  9995",
        "tle_line2": "2 66795  43.0001 182.4080 0001763 261.9913 178.2214 15.50576700  4728"
      },
      "geometry": {
        "type": "Point",
        "coordinates": [
          81.2328244484919,
          -42.72822239231914
        ]
      }
    },
    {
      "type": "Feature",
      "properties": {
        "norad_id": 66796,
        "name": "STARLINK-35964",
        "group": "last-30-days",
        "lat": -30.61346677650955,
        "lon": 35.6372690579931,
        "alt_km": 327.33606225798667,
        "timestamp": "2025-12-24T22:42:20.745934+00:00",
        "meta_object_name": "STARLINK-35964",
        "meta_object_id": "2025-278F",
        "meta_epoch": "2025-12-23T21:29:33.861984",
        "meta_mean_motion": 15.80993067,
        "meta_eccentricity": 0.000165,
        "meta_inclination": 42.9911,
        "meta_ra_of_asc_node": 182.6388,
        "meta_arg_of_pericenter": 276.683,
        "meta_mean_anomaly": 83.3854,
        "meta_ephemeris_type": 0,
        "meta_classification_type": "U",
        "meta_norad_cat_id": 66796,
        "meta_element_set_no": 999,
        "meta_rev_at_epoch": 361,
        "meta_bstar": 0.0020063,
        "meta_mean_motion_dot": 0.00422691,
        "meta_mean_motion_ddot": 0,
        "tle_line1": "1 66796U 25278F   25357.89553081  .00422691  00000+0  20063-2 0  9995",
        "tle_line2": "2 66796  42.9911 182.6388 0001650 276.6830  83.3854 15.80993067  3611"
      },
      "geometry": {
        "type": "Point",
        "coordinates": [
          35.6372690579931,
          -30.61346677650955
        ]
      }
    },
    {
      "type": "Feature",
      "properties": {
        "norad_id": 66797,
        "name": "STARLINK-36099",
        "group": "last-30-days",
        "lat": -42.954384642828394,
        "lon": 86.40439472009034,
        "alt_km": 417.21559500870626,
        "timestamp": "2025-12-24T22:42:20.745947+00:00",
        "meta_object_name": "STARLINK-36099",
        "meta_object_id": "2025-278G",
        "meta_epoch": "2025-12-24T08:00:03.000384",
        "meta_mean_motion": 15.50588795,
        "meta_eccentricity": 0.00020252,
        "meta_inclination": 43.0001,
        "meta_ra_of_asc_node": 182.3983,
        "meta_arg_of_pericenter": 263.0816,
        "meta_mean_anomaly": 180.9437,
        "meta_ephemeris_type": 0,
        "meta_classification_type": "U",
        "meta_norad_cat_id": 66797,
        "meta_element_set_no": 999,
        "meta_rev_at_epoch": 488,
        "meta_bstar": -0.0010808296,
        "meta_mean_motion_dot": -0.00063264,
        "meta_mean_motion_ddot": 0,
        "tle_line1": "1 66797U 25278G   25358.33336806 -.00063264  00000+0 -10808-2 0  9995",
        "tle_line2": "2 66797  43.0001 182.3983 0002025 263.0816 180.9437 15.50588795  4889"
      },
      "geometry": {
        "type": "Point",
        "coordinates": [
          86.40439472009034,
          -42.954384642828394
        ]
      }
    },
    {
      "type": "Feature",
      "properties": {
        "norad_id": 66798,
        "name": "STARLINK-36041",
        "group": "last-30-days",
        "lat": -42.979605833298656,
        "lon": 88.99619118694957,
        "alt_km": 417.21660854867514,
        "timestamp": "2025-12-24T22:42:20.745960+00:00",
        "meta_object_name": "STARLINK-36041",
        "meta_object_id": "2025-278H",
        "meta_epoch": "2025-12-24T08:00:03.000384",
        "meta_mean_motion": 15.50617326,
        "meta_eccentricity": 0.00022281,
        "meta_inclination": 43.0002,
        "meta_ra_of_asc_node": 182.3935,
        "meta_arg_of_pericenter": 266.4915,
        "meta_mean_anomaly": 179.4618,
        "meta_ephemeris_type": 0,
        "meta_classification_type": "U",
        "meta_norad_cat_id": 66798,
        "meta_element_set_no": 999,
        "meta_rev_at_epoch": 466,
        "meta_bstar": -0.0021811378,
        "meta_mean_motion_dot": -0.00126438,
        "meta_mean_motion_ddot": 0,
        "tle_line1": "1 66798U 25278H   25358.33336806 -.00126438  00000+0 -21811-2 0  9995",
        "tle_line2": "2 66798  43.0002 182.3935 0002228 266.4915 179.4618 15.50617326  4663"
      },
      "geometry": {
        "type": "Point",
        "coordinates": [
          88.99619118694957,
          -42.979605833298656
        ]
      }
    },
    {
      "type": "Feature",
      "properties": {
        "norad_id": 66799,
        "name": "STARLINK-36044",
        "group": "last-30-days",
        "lat": -42.943697375117836,
        "lon": 91.6790508441301,
        "alt_km": 417.19227484864496,
        "timestamp": "2025-12-24T22:42:20.745972+00:00",
        "meta_object_name": "STARLINK-36044",
        "meta_object_id": "2025-278J",
        "meta_epoch": "2025-12-24T08:00:03.000384",
        "meta_mean_motion": 15.50492641,
        "meta_eccentricity": 0.00017504,
        "meta_inclination": 43.0001,
        "meta_ra_of_asc_node": 182.3898,
        "meta_arg_of_pericenter": 258.1817,
        "meta_mean_anomaly": 189.7268,
        "meta_ephemeris_type": 0,
        "meta_classification_type": "U",
        "meta_norad_cat_id": 66799,
        "meta_element_set_no": 999,
        "meta_rev_at_epoch": 482,
        "meta_bstar": 0.0014325212,
        "meta_mean_motion_dot": 0.00084349,
        "meta_mean_motion_ddot": 0,
        "tle_line1": "1 66799U 25278J   25358.33336806  .00084349  00000+0  14325-2 0  9990",
        "tle_line2": "2 66799  43.0001 182.3898 0001750 258.1817 189.7268 15.50492641  4823"
      },
      "geometry": {
        "type": "Point",
        "coordinates": [
          91.6790508441301,
          -42.943697375117836
        ]
      }
    }
  ]
}